[{"OBJECT_NAME":"STARLINK-4019","OBJECT_ID":"2022-052A","EPOCH":"2026-03-09T21:25:30.172512","MEAN_MOTION":15.08834523,"ECCENTRICITY":0.00012165,"INCLINATION":53.217,"RA_OF_ASC_NODE":283.208,"ARG_OF_PERICENTER":93.225,"MEAN_ANOMALY":266.8881,"EPHEMERIS_TYPE":0,"CLASSIFICATION_TYPE":"U","NORAD_CAT_ID":52598,"ELEMENT_SET_NO":999,"REV_AT_EPOCH":21161,"BSTAR":1.373332e-5,"MEAN_MOTION_DOT":-6.9e-7,"MEAN_MOTION_DDOT":0},{"OBJECT_NAME":"FENGYUN 1C DEB","OBJECT_ID":"1999-025BFB","EPOCH":"2026-03-07T22:39:13.230432","MEAN_MOTION":14.80895829,"ECCENTRICITY":0.01343541,"INCLINATION":99.2432,"RA_OF_ASC_NODE":124.2719,"ARG_OF_PERICENTER":346.3958,"MEAN_ANOMALY":13.3642,"EPHEMERIS_TYPE":0,"CLASSIFICATION_TYPE":"U","NORAD_CAT_ID":31057,"ELEMENT_SET_NO":999,"REV_AT_EPOCH":63213,"BSTAR":0.0011769904,"MEAN_MOTION_DOT":0.0001056,"MEAN_MOTION_DDOT":0}]
